#cP2023  7 31  0  0  0.00000000      96 ORBIT IGS20 HLM  IGS
## 2273  86400.00000000   900.00000000 60156 0.0000000000000
+   32   G01G02G03G04G05G06G07G08G09G10G11G12G13G14G15G16G17
+        G18G19G20G21G22G23G24G25G26G27G28G29G30G31G32  0  0
+          0  0  0  0  0  0  0  0  0  0  0  0  0  0  0  0  0
+          0  0  0  0  0  0  0  0  0  0  0  0  0  0  0  0  0
+          0  0  0  0  0  0  0  0  0  0  0  0  0  0  0  0  0
++         2  2  2  2  2  2  2  2  2  2  2  2  2  2  2  2  2
++         2  2  2  2  3  2  2  2  2  2  2  2  1  2  2  0  0
++         0  0  0  0  0  0  0  0  0  0  0  0  0  0  0  0  0
++         0  0  0  0  0  0  0  0  0  0  0  0  0  0  0  0  0
++         0  0  0  0  0  0  0  0  0  0  0  0  0  0  0  0  0
%c G  cc GPS ccc cccc cccc cccc cccc ccccc ccccc ccccc ccccc
%c cc cc ccc ccc cccc cccc cccc cccc ccccc ccccc ccccc ccccc
%f  1.2500000  1.025000000  0.00000000000  0.000000000000000
%f  0.0000000  0.000000000  0.00000000000  0.000000000000000
%i    0    0    0    0      0      0      0      0         0
%i    0    0    0    0      0      0      0      0         0
/* RAPID ORBIT COMBINATION FROM WEIGHTED AVERAGE OF:        
/* cod emr esa gfz grg jgx jpl ngs sio usn whu              
/* REFERENCED TO IGS TIME (IGST) AND TO WEIGHTED MEAN POLE: 
/* PCV:IGS20      OL/AL:FES2014b NONE     Y  ORB:CMB CLK:CMB
*  2023  7 31 21 45  0.00000000
PG01 -13340.843559  14445.816839  17340.957987    170.430162  5 10  8  69       
PG02 -14768.216813   7849.732248  21099.809700   -570.358173  6  5  2  95       
PG03 -22720.172310  13012.551636  -4217.266948   -208.275854  5  7  4  96       
PG04 -14629.347703   7059.597327 -21024.979481    112.036476  7  4  7  93       
PG05  23937.937632  -3069.370429 -11394.558462   -137.048811  7  9  7  96       
PG06   6052.762932  22168.117553 -13178.347759    572.021559  6  7  5 114       
PG07  -5829.293048  25226.473209  -4153.716813    108.887061  5  3  3 106       
PG08 -21987.919087  -2482.247508  14901.741217   -134.986481  6  7  6  78       
PG09  -5282.114137  14790.245332 -21490.737935    -98.260595  7  6  7  92       
PG10  -3567.152854 -14602.941892  22052.827170    -47.428359  5  5  6  97       
PG11  13250.035413   9318.889266 -21046.425117   -300.409469  7  7  7  94       
PG12  24706.593246  -9598.218723  -1040.986736   -407.458412  8  6  6  85       
PG13  21727.712373  11722.909856   9887.047611    554.356380  8  6  6  69       
PG14   -267.883065  16324.163448  20942.522982    139.897437  2  6  6  94       
PG15  21883.148665   -670.388616  14738.893618     63.305256  6  4  6 105       
PG16 -22514.313669  -2981.213647 -14439.261216   -474.043454  5  3  6  82       
PG17   9914.748804  20577.065952  13891.497931    722.006502  4  6  5  85       
PG18   4773.184987 -25950.639766  -2074.342281   -366.169776  5  7  7  89       
PG19  16099.009301  20371.965609   6149.266641    351.474340  7  5  5 121       
PG20  18240.617628   4068.678199 -18764.168659    419.665848  8  8  5 107       
PG21 -15281.266891   4014.006312  21769.654814    151.421674  5  6  3 110       
PG22 -17970.654212 -19349.847925   3996.500605    520.706726  9  9  6 118       
PG23   9929.131702 -17584.108300  17168.967537     49.612851  1  3  5  92       
PG24  14514.113288 -10093.053297  19331.600162   -275.653083  3  5  4 110       
PG25  16379.933946 -16994.828826 -12223.576717    459.496757  4  7  6  93       
PG26 -14303.903917  -9582.287235 -20419.043908    234.619248  6  4  3  87       
PG27 -23064.887963 -12573.450740   4949.756008    -13.745811  9  6  6  76       
PG28  -6144.705631 -23255.992007 -11286.906074     79.685002  7  6  4 104       
PG29   7124.078476 -13373.015606 -21856.751089   -606.830879  6  8  5 120       
PG30    632.432360  25964.470393   4967.133200   -500.062437  2  5  4 100       
PG31 -11695.611198 -14392.723890 -19031.434679   -221.060033  5  6  5  92       
PG32 -14059.783717 -19788.907783  11194.409794   -532.085421  7  7  6  82       
*  2023  7 31 22  0  0.00000000
PG01 -13256.957132  12296.326468  18983.982692    170.428694  6 10  8 100       
PG02 -14837.402563   5498.519819  21814.112138   -570.354460  7  6  3 111       
PG03 -23082.281053  12955.831078  -1340.104221   -208.260479  6  7  4 102       
PG04 -16475.794648   5602.202796 -20087.789201    112.046538  7  4  7  90       
PG05  22784.399587  -2242.648024 -13738.415051   -137.049562  7  9  7 108       
PG06   5779.858064  23524.650412 -10724.521378    572.017540  6  6  5 115       
PG07  -6092.817262  24506.299754  -6918.769872    108.877237  5  3  3 106       
PG08 -23216.450192  -3489.360373  12720.461437   -134.987326  7  7  6  95       
PG09  -7355.606438  13467.237089 -21754.166787    -98.251997  7  6  7  95       
PG10  -1333.604970 -15625.289826  21563.654576    -47.429135  5  5  7 114       
PG11  12874.254455  11644.285723 -20104.880621   -300.424619  7  7  7  88       
PG12  24729.328495  -9337.137692   1826.761102   -407.462502  8  6  6 100       
PG13  22330.856556  12541.710274   7253.760847    554.360937  8  6  6  78       
PG14  -2456.557816  17186.333019  20077.485470    139.908056  2  6  6 102       
PG15  23237.081795    277.592834  12615.177229     63.308300  6  5  5 104       
PG16 -20969.483889  -3708.888536 -16456.988229   -474.039127  4  4  5  71       
PG17   8522.055590  19687.937741  16017.933597    722.007130  5  6  4  96       
PG18   4961.940531 -25528.737639  -4928.942954   -366.182230  5  7  7  97       
PG19  15312.066129  19946.698518   8837.087645    351.478893  7  5  5 127       
PG20  16494.816543   5468.518833 -19998.689440    419.664002  8  9  5  90       
PG21 -15364.520420   1609.819422  22105.105707    151.421316  6  7  4 106       
PG22 -17394.602173 -19168.494351   6760.998500    520.711147  9  9  7  90       
PG23  11650.000731 -18295.238547  15219.819571     49.616881     2  5 100       
PG24  14680.522596  -7735.409635  20290.551341   -275.663898  3  5  4 105       
PG25  17590.669230 -17312.411277  -9764.478384    459.498771  4  7  6  93       
PG26 -12288.080038 -10800.533561 -21085.024370    234.618012  6  5  3  84       
PG27 -23304.044203 -12984.730271   2143.337838    -13.752111  9  6  5  75       
PG28  -5870.824031 -24389.143098  -8752.043930     79.682768  7  6  4  97       
PG29   9080.226106 -11822.191064 -22034.014809   -606.831594  6  8  5 114       
PG30    256.872574  26335.038213   2188.274614   -500.059801  4  5  4 108       
PG31 -11325.340676 -16438.877001 -17484.869186   -221.060575  5  6  5  69       
PG32 -12804.396927 -19178.249492  13537.391681   -532.091934  8  8  6  77       
*  2023  7 31 22 15  0.00000000
PG01 -13286.422198   9975.898175  20287.386300    170.427265  6 11  8  71       
PG02 -15037.991290   3097.972518  22169.032902   -570.350590  7  6  3 104       
PG03 -23160.023878  12759.065303   1560.258936   -208.245151  6  8  4 106       
PG04 -18290.328283   4313.183916 -18805.603656    112.056567  7  4  7  92       
PG05  21463.645791  -1224.904354 -15849.537511   -137.051812  8  9  7  90       
PG06   5591.566618  24604.206534  -8084.697117    572.013527  5  6  5 120       
PG07  -6387.235971  23487.462746  -9559.502384    108.867371  5  4  3 115       
PG08 -24270.767416  -4302.292758  10323.704651   -134.989182  7  6  6  86       
PG09  -9501.911912  12249.096148 -21645.861732    -98.243378  7  6  7 100       
PG10    776.806857 -16734.258689  20707.715978    -47.430959  4  6  7 107       
PG11  12630.561784  13859.925875 -18817.458572   -300.439731  8  7  7  95       
PG12  24472.552019  -8938.789734   4662.809919   -407.466764  8  5  6  88       
PG13  22740.494194  13133.226676   4496.428307    554.365349  9  6  6  80       
PG14  -4496.428244  18103.669839  18866.288043    139.918743  2  6  6  95       
PG15  24398.728304   1056.629769  10271.395829     63.311406  6  5  5  99       
PG16 -19274.218596  -4604.040841 -18202.467181   -474.034743  4  5  4  96       
PG17   6902.566957  18750.272405  17875.253861    722.007733  5  6  4 107       
PG18   5161.428461 -24797.718640  -7697.838092   -366.194633  5  6  7  97       
PG19  14265.235009  19387.639270  11374.377913    351.483670  7  5  6 120       
PG20  14728.151150   7027.828532 -20886.513162    419.662158  8  8  5  94       
PG21 -15577.038485   -794.569729  22077.173166    151.420331  6  7  4 111       
PG22 -16566.428109 -18838.658573   9411.658515    520.715827 10  8  8 105       
PG23  13127.208618 -18977.769413  13006.876481     49.620854     1  5 109       
PG24  14961.877455  -5301.811812  20886.300538   -275.674584  4  4  4 101       
PG25  18537.013170 -17547.324666  -7137.020677    459.500796  5  7  6 104       
PG26 -10284.945010 -12145.944747 -21393.347925    234.616791  6  5  3  98       
PG27 -23293.288591 -13218.161271   -699.163254    -13.758390  9  7  5  83       
PG28  -5651.512491 -25239.757940  -6066.694592     79.680566  7  6  5  99       
PG29  11116.353484 -10381.915501 -21833.970228   -606.832450  6  8  5 122       
PG30    -93.053829  26405.872558   -628.805985   -500.057191  5  4  4 119       
PG31 -11065.836039 -18313.140175 -15636.652209   -221.061494  5  6  6  98       
PG32 -11303.645667 -18507.385694  15652.055532   -532.098469  8  8  7  95       
EOF
